LEMUR-2-JOHANLORAN      
1 44084U 19018G   22224.70404793  .00025802  00000+0  67250-3 0  9994
2 44084  97.3107 286.1653 0007931 260.0860  99.9490 15.38804569187423
LEMUR-2-BEAUDACIOUS     
1 44085U 19018H   22225.10281976  .00014565  00000+0  44086-3 0  9992
2 44085  97.3094 285.2699 0008693 269.1974  90.8273 15.34247227187394
LEMUR-2-ELHAM           
1 44086U 19018J   22224.72587093  .00018140  00000+0  50935-3 0  9992
2 44086  97.3128 286.3119 0008345 262.8924  97.1372 15.36564587187428
LEMUR-2-VICTOR-ANDREW   
1 44087U 19018K   22224.69556110  .00024704  00000+0  63866-3 0  9995
2 44087  97.3134 286.8294 0007647 257.7990 102.2399 15.39066335187456
LEMUR-2-LILLYJO         
1 44396U 19038L   22225.13612834  .00009102  00000+0  42072-3 0  9997
2 44396  97.6214 195.1091 0018622 289.7251  70.1975 15.20253055171686
LEMUR-2-WANLI           
1 44402U 19038S   22224.83724370  .00008809  00000+0  41665-3 0  9990
2 44402  97.6235 194.5645 0019011 292.8875  67.0352 15.19463096171629
LEMUR-2-MORAG           
1 44403U 19038T   22224.79389800  .00009105  00000+0  42487-3 0  9994
2 44403  97.6271 195.4491 0018208 296.1920  63.7442 15.19931454171647
LEMUR-2-DUSTINTHEWIND   
1 44405U 19038V   22224.83976109  .00008717  00000+0  41385-3 0  9999
2 44405  97.6234 194.4291 0019082 292.5946  67.3269 15.19335990171622
LEMUR-2-ALEX-MADDY      
1 44407U 19038X   22224.90084459  .00006282  00000+0  31471-3 0  9997
2 44407  97.6320 194.4292 0019090 301.1442  58.7918 15.17583761171565
LEMUR-2-EJATTA          
1 44409U 19038Z   22224.83093815  .00009211  00000+0  42111-3 0  9995
2 44409  97.6210 195.1020 0018416 288.4935  71.4299 15.20631985171679
LEMUR-2-GREGROBINSON    
1 44411U 19038AB  22224.73609417  .00008364  00000+0  39474-3 0  9994
2 44411  97.6284 195.3480 0018369 298.1109  61.8268 15.19565996171296
LEMUR-2-YNDRD           
1 44413U 19038AD  22224.46879741  .00006761  00000+0  34115-3 0  9991
2 44413  97.6305 193.7798 0019211 302.8827  57.0557 15.17301468171505
LEMUR-2-JPGSQUARED      
1 44855U 19089D   22224.78885581  .00006318  00000+0  46356-3 0  9999
2 44855  36.9655 123.7743 0007087 309.5072  50.5044 15.03186153146492
LEMUR-2-HIMOMANDDAD     
1 44860U 19089J   22225.09776509  .00005995  00000+0  44280-3 0  9993
2 44860  36.9655 123.4429 0007372 305.7745  54.2312 15.02962040146505
LEMUR-2-PAPPY           
1 44861U 19089K   22224.81599221  .00007150  00000+0  52736-3 0  9997
2 44861  36.9653 124.8849 0007215 304.0965  55.9093 15.02930047146424
LEMUR-2-THEODOSIA       
1 44863U 19089M   22225.10059622  .00006355  00000+0  46678-3 0  9992
2 44863  36.9650 122.5103 0007422 310.8924  49.1175 15.03140876146386
LEMUR-2-ETHANOAKES      
1 46298U 20061AC  22224.72637142  .00009947  00000+0  49123-3 0  9992
2 46298  97.4474 295.3499 0001816  71.8110 288.3321 15.18069757107049
LEMUR-2-OSCARLATOR      
1 46299U 20061AD  22224.71549126  .00010792  00000+0  52914-3 0  9998
2 46299  97.4479 295.3957 0001985  74.1979 285.9473 15.18297077107072
LEMUR-2-SCHMIDTFALL     
1 46315U 20061AV  22224.71751927  .00010922  00000+0  52706-3 0  9995
2 46315  97.4488 295.8867 0001548  19.8175 340.3119 15.18851896107141
LEMUR-2-DJUPROERA       
1 46316U 20061AW  22224.71596111  .00011580  00000+0  55026-3 0  9997
2 46316  97.4480 295.9867 0001526  14.1437 345.9840 15.19372805107152
LEMUR-2-SQUAREJAWS      
1 46317U 20061AX  22224.74049433  .00011819  00000+0  56518-3 0  9993
2 46317  97.4484 295.9697 0001493  10.7305 349.3961 15.19145823107168
LEMUR-2-URSA-AVION      
1 46318U 20061AY  22224.73841344  .00011697  00000+0  56063-3 0  9993
2 46318  97.4483 295.9669 0001460   6.8457 353.2797 15.19071018107160
LEMUR-2-SLICERS         
1 46500U 20068Q   22224.83533673  .00007156  00000+0  49055-3 0  9995
2 46500  97.7252 165.5161 0014104 100.3274 259.9543 15.06266119102592
LEMUR-2-DAYWZAGOODDAY   
1 46501U 20068R   22224.83165079  .00007173  00000+0  48736-3 0  9991
2 46501  97.7246 165.7104 0014104 101.4394 258.8418 15.06599965102597
LEMUR-2-SUSURRUS        
1 46502U 20068S   22224.83610442  .00006468  00000+0  44381-3 0  9999
2 46502  97.7252 165.5119 0014054 101.8640 258.4162 15.06268812102597
LEMUR-2-NICHOL          
1 46503U 20068T   22224.79137700  .00005335  00000+0  36716-3 0  9991
2 46503  97.7202 165.4096 0014104 102.9945 257.2858 15.06244357102588
LEMUR-2-OZARAK          
1 46908U 20081D   22225.06541733  .00004183  00000+0  31679-3 0  9994
2 46908  36.9038 247.9917 0005919 169.2336 190.8549 15.02237236 96687
LEMUR-2-JINDRA          
1 46909U 20081E   22224.77709257  .00004876  00000+0  36303-3 0  9997
2 46909  36.9048 248.4801 0006376 178.8468 181.2277 15.02774014 96667
LEMUR-2-WALLACE         
1 46910U 20081F   22224.39413975  .00003849  00000+0  28935-3 0  9997
2 46910  36.9077 250.9703 0006883 174.5658 185.5237 15.02577189 96596
LEMUR-2-JEREMIAH        
1 46911U 20081G   22224.77093568  .00003616  00000+0  27267-3 0  9991
2 46911  36.9075 248.4428 0006122 178.4408 181.6317 15.02515176 96665
LEMUR-2-NEVA            
1 47450U 21006AP  22225.06325835  .00008375  00000+0  41127-3 0  9994
2 47450  97.4412 283.8400 0012036  85.5324 274.7285 15.18257822 85888
LEMUR-2-SAOIRSEDH5GUO   
1 47453U 21006AS  22224.73376564  .00009078  00000+0  44367-3 0  9995
2 47453  97.4438 283.5716 0010722  87.7936 272.4525 15.18410773 85821
LEMUR-2-NALLYWACKER     
1 47457U 21006AW  22224.72431793  .00009986  00000+0  48477-3 0  9998
2 47457  97.4415 283.5434 0011561  86.0144 274.2411 15.18612202 85838
LEMUR-2-MANGO1          
1 47493U 21006CJ  22225.10394155  .00007441  00000+0  37673-3 0  9991
2 47493  97.4361 283.0772 0011362  87.9804 272.2730 15.17234847 85869
LEMUR-2-RUAIRI-EILIDH   
1 47511U 21006DC  22224.79579813  .00007886  00000+0  39887-3 0  9994
2 47511  97.4351 282.3983 0009077  91.4489 268.7784 15.17267366 85797
LEMUR-2-JENNIFERSONG    
1 47525U 21006DR  22225.11591939  .00009688  00000+0  47070-3 0  9994
2 47525  97.4369 283.6158 0011705  84.5500 275.7069 15.18589208 85895
LEMUR-2-CHANTAL         
1 47529U 21006DV  22225.11946821  .00007827  00000+0  40318-3 0  9993
2 47529  97.4362 282.5239 0008483  93.4666 266.7538 15.16633907 86785
LEMUR-2-NOOBNOOB        
1 47538U 21006DY  22225.15866350  .00007642  00000+0  38034-3 0  9992
2 47538  97.4427 283.8379 0011645  86.3471 273.9095 15.17822474 85883
LEMUR-2-AMANDA-SVANTE   
1 48269U 21034B   22225.16486294  .00002366  00000+0  26562-3 0  9992
2 48269  97.7456 295.0804 0002169 229.7485 130.3542 14.87684787 69960
LEMUR-2-SPECIAL-K       
1 48273U 21034F   22225.17349173  .00002255  00000+0  25361-3 0  9995
2 48273  97.7456 295.0677 0002285 223.3396 136.7641 14.87664441 69979
LEMUR-2-JACKSON         
1 48885U 21059G   22224.90764396  .00009347  00000+0  46952-3 0  9997
2 48885  97.5601 354.4710 0006594 264.4387  95.6094 15.17480324 62506
LEMUR-2-ANNABANANA      
1 48923U 21059AW  22225.15629493  .00008578  00000+0  41404-3 0  9998
2 48923  97.5541 355.0538 0009618 250.7614 109.2580 15.18879894 62583
LEMUR-2-JOHN-TREIRES    
1 48925U 21059AY  22224.82530171  .00010943  00000+0  51587-3 0  9999
2 48925  97.5602 355.2801 0012150 255.9047 104.0838 15.19605004 62557
LEMUR-2-AC-CUBED        
1 48927U 21059BA  22225.09578760  .00008020  00000+0  38549-3 0  9993
2 48927  97.5581 355.4122 0014370 258.8920 101.0699 15.18998916 62593
LEMUR-2-MERIMA          
1 48929U 21059BC  22224.82031900  .00009427  00000+0  44398-3 0  9996
2 48929  97.5545 355.1848 0014092 260.4099  99.5543 15.19657763 62563
LEMUR-2-CARLSANTAMARI   
1 48959U 21059CJ  22225.16071190  .00012073  00000+0  53902-3 0  9994
2 48959  97.5570 356.0429 0013606 263.6547  96.3139 15.21435776 62648
LEMUR-2-RAMONAMAE       
1 51021U 22002AP  22225.19115864  .00008066  00000+0  42317-3 0  9992
2 51021  97.4846 291.5011 0007820 229.9734 130.0813 15.15984982 32015
LEMUR-2-KING-JULIEN     
1 51022U 22002AQ  22224.73712542  .00008856  00000+0  46565-3 0  9994
2 51022  97.4825 290.9748 0007669 229.5893 130.4672 15.15875600 31940
LEMUR-2-ROHOVITHSA      
1 51036U 22002BE  22224.74534221  .00005657  00000+0  30851-3 0  9993
2 51036  97.4852 290.8976 0007923 234.4806 125.5687 15.14739102 31934
LEMUR-2-MIRIWARI        
1 51054U 22002BY  22225.14698614  .00004956  00000+0  27103-3 0  9992
2 51054  97.4845 291.2590 0007163 226.4276 133.6362 15.14706422 31996
LEMUR-2-DJIRANG         
1 51058U 22002CC  22224.68529610  .00005169  00000+0  28261-3 0  9996
2 51058  97.4826 290.7489 0006759 227.6809 132.3851 15.14696376 31923
LEMUR-2-KRYWE           
1 51100U 22003G   22225.08145128  .00022264  00000+0  64816-3 0  9999
2 51100  44.9872 115.8647 0008848 180.6043 318.3451 15.35057173 32293
LEMUR-2-TENNYSONLILY    
1 52732U 22057A   22224.77340184  .00007405  00000+0  42913-3 0  9998
2 52732  97.5268 338.6006 0008906   3.7991 356.3306 15.12452575 11944
LEMUR-2-VANDENDRIES     
1 52733U 22057B   22224.82881318  .00010311  00000+0  58903-3 0  9990
2 52733  97.5161 338.5728 0007094 358.3628   1.7578 15.12880246 11953
LEMUR-2-KAREN_B         
1 52736U 22057E   22224.82336411  .00007400  00000+0  42483-3 0  9993
2 52736  97.5137 338.5557 0006969 353.7352   6.3790 15.12804696 11954
LEMUR-2-HANCOM-1        
1 52740U 22057J   22225.08696949  .00005662  00000+0  32711-3 0  9993
2 52740  97.5337 339.0268 0010397 351.3783   8.7268 15.12660694 11996
LEMUR-2-MIMI1307        
1 52769U 22057AP  22225.08006509  .00002669  00000+0  15089-3 0  9994
2 52769  97.5318 339.1692 0013000 325.9477  34.0919 15.13890342 12003
